CCSDS_OMM_VERS = 2.0
CREATION_DATE  = 
ORIGINATOR     = 

OBJECT_NAME    = STARLINK-36548
OBJECT_ID      = 2026-020A
CENTER_NAME    = EARTH
REF_FRAME      = TEME
TIME_SYSTEM    = UTC
MEAN_ELEMENT_THEORY = SGP/SGP4

EPOCH          = 2026-02-13T22:00:01.999584
MEAN_MOTION    = 15.76385612
ECCENTRICITY   = .00015629
INCLINATION    = 42.9982
RA_OF_ASC_NODE = 286.7689
ARG_OF_PERICENTER = 271.8555
MEAN_ANOMALY   = 59.6280

EPHEMERIS_TYPE = 0
CLASSIFICATION_TYPE = U
NORAD_CAT_ID   = 67617
ELEMENT_SET_NO = 999
REV_AT_EPOCH   = 356
BSTAR          = -.24666581E-3
MEAN_MOTION_DOT = -.40497E-3
MEAN_MOTION_DDOT = 0

CCSDS_OMM_VERS = 2.0
CREATION_DATE  = 
ORIGINATOR     = 

OBJECT_NAME    = STARLINK-36601
OBJECT_ID      = 2026-020B
CENTER_NAME    = EARTH
REF_FRAME      = TEME
TIME_SYSTEM    = UTC
MEAN_ELEMENT_THEORY = SGP/SGP4

EPOCH          = 2026-02-13T17:13:23.316672
MEAN_MOTION    = 15.82366185
ECCENTRICITY   = .00025039
INCLINATION    = 42.9972
RA_OF_ASC_NODE = 287.7772
ARG_OF_PERICENTER = 224.0465
MEAN_ANOMALY   = 136.0207

EPHEMERIS_TYPE = 0
CLASSIFICATION_TYPE = U
NORAD_CAT_ID   = 67618
ELEMENT_SET_NO = 999
REV_AT_EPOCH   = 230
BSTAR          = .23454631E-2
MEAN_MOTION_DOT = .533671E-2
MEAN_MOTION_DDOT = 0

CCSDS_OMM_VERS = 2.0
CREATION_DATE  = 
ORIGINATOR     = 

OBJECT_NAME    = STARLINK-36119
OBJECT_ID      = 2026-020C
CENTER_NAME    = EARTH
REF_FRAME      = TEME
TIME_SYSTEM    = UTC
MEAN_ELEMENT_THEORY = SGP/SGP4

EPOCH          = 2026-02-13T22:00:01.999584
MEAN_MOTION    = 15.76372130
ECCENTRICITY   = .00018701
INCLINATION    = 42.9985
RA_OF_ASC_NODE = 286.7380
ARG_OF_PERICENTER = 266.0740
MEAN_ANOMALY   = 77.8593

EPHEMERIS_TYPE = 0
CLASSIFICATION_TYPE = U
NORAD_CAT_ID   = 67619
ELEMENT_SET_NO = 999
REV_AT_EPOCH   = 356
BSTAR          = -.13422116E-3
MEAN_MOTION_DOT = -.22293E-3
MEAN_MOTION_DDOT = 0

CCSDS_OMM_VERS = 2.0
CREATION_DATE  = 
ORIGINATOR     = 

OBJECT_NAME    = STARLINK-36607
OBJECT_ID      = 2026-020D
CENTER_NAME    = EARTH
REF_FRAME      = TEME
TIME_SYSTEM    = UTC
MEAN_ELEMENT_THEORY = SGP/SGP4

EPOCH          = 2026-02-13T02:01:44.003712
MEAN_MOTION    = 15.82113316
ECCENTRICITY   = .00020836
INCLINATION    = 42.9976
RA_OF_ASC_NODE = 291.6319
ARG_OF_PERICENTER = 281.2913
MEAN_ANOMALY   = 78.7725

EPHEMERIS_TYPE = 0
CLASSIFICATION_TYPE = U
NORAD_CAT_ID   = 67620
ELEMENT_SET_NO = 999
REV_AT_EPOCH   = 220
BSTAR          = .17444842E-2
MEAN_MOTION_DOT = .385372E-2
MEAN_MOTION_DDOT = 0

CCSDS_OMM_VERS = 2.0
CREATION_DATE  = 
ORIGINATOR     = 

OBJECT_NAME    = STARLINK-36615
OBJECT_ID      = 2026-020E
CENTER_NAME    = EARTH
REF_FRAME      = TEME
TIME_SYSTEM    = UTC
MEAN_ELEMENT_THEORY = SGP/SGP4

EPOCH          = 2026-02-13T17:10:50.250432
MEAN_MOTION    = 15.83631688
ECCENTRICITY   = .00074749
INCLINATION    = 42.9977
RA_OF_ASC_NODE = 287.7626
ARG_OF_PERICENTER = 232.0228
MEAN_ANOMALY   = 127.9969

EPHEMERIS_TYPE = 0
CLASSIFICATION_TYPE = U
NORAD_CAT_ID   = 67621
ELEMENT_SET_NO = 999
REV_AT_EPOCH   = 230
BSTAR          = .28954374E-2
MEAN_MOTION_DOT = .714706E-2
MEAN_MOTION_DDOT = 0

CCSDS_OMM_VERS = 2.0
CREATION_DATE  = 
ORIGINATOR     = 

OBJECT_NAME    = STARLINK-36614
OBJECT_ID      = 2026-020F
CENTER_NAME    = EARTH
REF_FRAME      = TEME
TIME_SYSTEM    = UTC
MEAN_ELEMENT_THEORY = SGP/SGP4

EPOCH          = 2026-02-13T22:00:01.999584
MEAN_MOTION    = 15.76378629
ECCENTRICITY   = .00019442
INCLINATION    = 42.9985
RA_OF_ASC_NODE = 286.6758
ARG_OF_PERICENTER = 270.0154
MEAN_ANOMALY   = 98.7952

EPHEMERIS_TYPE = 0
CLASSIFICATION_TYPE = U
NORAD_CAT_ID   = 67622
ELEMENT_SET_NO = 999
REV_AT_EPOCH   = 356
BSTAR          = -.18021983E-3
MEAN_MOTION_DOT = -.29749E-3
MEAN_MOTION_DDOT = 0

CCSDS_OMM_VERS = 2.0
CREATION_DATE  = 
ORIGINATOR     = 

OBJECT_NAME    = STARLINK-36600
OBJECT_ID      = 2026-020G
CENTER_NAME    = EARTH
REF_FRAME      = TEME
TIME_SYSTEM    = UTC
MEAN_ELEMENT_THEORY = SGP/SGP4

EPOCH          = 2026-02-13T22:00:01.999584
MEAN_MOTION    = 15.76366791
ECCENTRICITY   = .00016401
INCLINATION    = 42.9985
RA_OF_ASC_NODE = 286.7069
ARG_OF_PERICENTER = 259.4427
MEAN_ANOMALY   = 96.9399

EPHEMERIS_TYPE = 0
CLASSIFICATION_TYPE = U
NORAD_CAT_ID   = 67623
ELEMENT_SET_NO = 999
REV_AT_EPOCH   = 356
BSTAR          = -.13413632E-3
MEAN_MOTION_DOT = -.22273E-3
MEAN_MOTION_DDOT = 0

CCSDS_OMM_VERS = 2.0
CREATION_DATE  = 
ORIGINATOR     = 

OBJECT_NAME    = STARLINK-36439
OBJECT_ID      = 2026-020H
CENTER_NAME    = EARTH
REF_FRAME      = TEME
TIME_SYSTEM    = UTC
MEAN_ELEMENT_THEORY = SGP/SGP4

EPOCH          = 2026-02-12T16:53:40.281216
MEAN_MOTION    = 15.81916579
ECCENTRICITY   = .00046735
INCLINATION    = 42.9975
RA_OF_ASC_NODE = 293.9383
ARG_OF_PERICENTER = 247.0452
MEAN_ANOMALY   = 112.9926

EPHEMERIS_TYPE = 0
CLASSIFICATION_TYPE = U
NORAD_CAT_ID   = 67624
ELEMENT_SET_NO = 999
REV_AT_EPOCH   = 214
BSTAR          = .25403322E-2
MEAN_MOTION_DOT = .568445E-2
MEAN_MOTION_DDOT = 0

CCSDS_OMM_VERS = 2.0
CREATION_DATE  = 
ORIGINATOR     = 

OBJECT_NAME    = STARLINK-36438
OBJECT_ID      = 2026-020J
CENTER_NAME    = EARTH
REF_FRAME      = TEME
TIME_SYSTEM    = UTC
MEAN_ELEMENT_THEORY = SGP/SGP4

EPOCH          = 2026-02-13T22:00:01.999584
MEAN_MOTION    = 15.76387253
ECCENTRICITY   = .00017991
INCLINATION    = 42.9985
RA_OF_ASC_NODE = 286.6447
ARG_OF_PERICENTER = 258.9891
MEAN_ANOMALY   = 122.2612

EPHEMERIS_TYPE = 0
CLASSIFICATION_TYPE = U
NORAD_CAT_ID   = 67625
ELEMENT_SET_NO = 999
REV_AT_EPOCH   = 356
BSTAR          = -.31314283E-3
MEAN_MOTION_DOT = -.51221E-3
MEAN_MOTION_DDOT = 0

CCSDS_OMM_VERS = 2.0
CREATION_DATE  = 
ORIGINATOR     = 

OBJECT_NAME    = STARLINK-36436
OBJECT_ID      = 2026-020K
CENTER_NAME    = EARTH
REF_FRAME      = TEME
TIME_SYSTEM    = UTC
MEAN_ELEMENT_THEORY = SGP/SGP4

EPOCH          = 2026-02-13T03:26:57.096960
MEAN_MOTION    = 15.82095013
ECCENTRICITY   = .0002119
INCLINATION    = 42.9975
RA_OF_ASC_NODE = 291.2137
ARG_OF_PERICENTER = 250.5687
MEAN_ANOMALY   = 109.4956

EPHEMERIS_TYPE = 0
CLASSIFICATION_TYPE = U
NORAD_CAT_ID   = 67626
ELEMENT_SET_NO = 999
REV_AT_EPOCH   = 221
BSTAR          = .13329E-2
MEAN_MOTION_DOT = .290831E-2
MEAN_MOTION_DDOT = 0

CCSDS_OMM_VERS = 2.0
CREATION_DATE  = 
ORIGINATOR     = 

OBJECT_NAME    = STARLINK-36502
OBJECT_ID      = 2026-020L
CENTER_NAME    = EARTH
REF_FRAME      = TEME
TIME_SYSTEM    = UTC
MEAN_ELEMENT_THEORY = SGP/SGP4

EPOCH          = 2026-02-13T17:06:12.296448
MEAN_MOTION    = 15.82263856
ECCENTRICITY   = .00022095
INCLINATION    = 42.9972
RA_OF_ASC_NODE = 287.7376
ARG_OF_PERICENTER = 257.3491
MEAN_ANOMALY   = 102.7134

EPHEMERIS_TYPE = 0
CLASSIFICATION_TYPE = U
NORAD_CAT_ID   = 67627
ELEMENT_SET_NO = 999
REV_AT_EPOCH   = 230
BSTAR          = .21865931E-2
MEAN_MOTION_DOT = .492745E-2
MEAN_MOTION_DDOT = 0

CCSDS_OMM_VERS = 2.0
CREATION_DATE  = 
ORIGINATOR     = 

OBJECT_NAME    = STARLINK-36532
OBJECT_ID      = 2026-020M
CENTER_NAME    = EARTH
REF_FRAME      = TEME
TIME_SYSTEM    = UTC
MEAN_ELEMENT_THEORY = SGP/SGP4

EPOCH          = 2026-02-13T17:03:22.596480
MEAN_MOTION    = 15.82369738
ECCENTRICITY   = .00029703
INCLINATION    = 42.9976
RA_OF_ASC_NODE = 287.7203
ARG_OF_PERICENTER = 236.4710
MEAN_ANOMALY   = 123.5878

EPHEMERIS_TYPE = 0
CLASSIFICATION_TYPE = U
NORAD_CAT_ID   = 67628
ELEMENT_SET_NO = 999
REV_AT_EPOCH   = 230
BSTAR          = .30650297E-2
MEAN_MOTION_DOT = .712453E-2
MEAN_MOTION_DDOT = 0

