STARLINK-36548          
1 67617U 26020A   26044.91668981 -.00040497  00000+0 -24667-3 0  9994
2 67617  42.9982 286.7689 0001562 271.8555  59.6280 15.76385612  3564
STARLINK-36601          
1 67618U 26020B   26044.71763098  .00533671  00000+0  23455-2 0  9990
2 67618  42.9972 287.7772 0002503 224.0465 136.0207 15.82366185  2305
STARLINK-36119          
1 67619U 26020C   26044.91668981 -.00022293  00000+0 -13422-3 0  9997
2 67619  42.9985 286.7380 0001870 266.0740  77.8593 15.76372130  3561
STARLINK-36607          
1 67620U 26020D   26044.08453708  .00385372  00000+0  17445-2 0  9992
2 67620  42.9976 291.6319 0002083 281.2913  78.7725 15.82113316  2201
STARLINK-36615          
1 67621U 26020E   26044.71585938  .00714706  00000+0  28954-2 0  9998
2 67621  42.9977 287.7626 0007474 232.0228 127.9969 15.83631688  2308
STARLINK-36614          
1 67622U 26020F   26044.91668981 -.00029749  00000+0 -18022-3 0  9995
2 67622  42.9985 286.6758 0001944 270.0154  98.7952 15.76378629  3569
STARLINK-36600          
1 67623U 26020G   26044.91668981 -.00022273  00000+0 -13414-3 0  9991
2 67623  42.9985 286.7069 0001640 259.4427  96.9399 15.76366791  3565
STARLINK-36439          
1 67624U 26020H   26043.70393844  .00568445  00000+0  25403-2 0  9995
2 67624  42.9975 293.9383 0004673 247.0452 112.9926 15.81916579  2143
STARLINK-36438          
1 67625U 26020J   26044.91668981 -.00051221  00000+0 -31314-3 0  9997
2 67625  42.9985 286.6447 0001799 258.9891 122.2612 15.76387253  3567
STARLINK-36436          
1 67626U 26020K   26044.14371640  .00290831  00000+0  13329-2 0  9991
2 67626  42.9975 291.2137 0002119 250.5687 109.4956 15.82095013  2219
STARLINK-36502          
1 67627U 26020L   26044.71264232  .00492745  00000+0  21866-2 0  9996
2 67627  42.9972 287.7376 0002209 257.3491 102.7134 15.82263856  2306
STARLINK-36532          
1 67628U 26020M   26044.71067820  .00712453  00000+0  30650-2 0  9993
2 67628  42.9976 287.7203 0002970 236.4710 123.5878 15.82369738  2309
